CusAdrID,CusID,AddressName,Address1,Address2,City,State,ZipCode,DEANo,HINNo,AcctSTID,CreatedOn,CreatedBy,LastModified,LastModifiedBy
1000,1010,AETNA RX HOME DELIVERY LLC,10991 NORTH WEST AIR WORLD DR.,,KANSAS CITY,MO,64153,BA8148985,NULL,T41449,2017-11-15 01:50:00,dbo,2017-11-15 01:50:00,dbo
1001,1011,ALBERTSONS LLC DISTRIBUTION CENTER #8720,2500 INDUSTRIAL BLVD,,PONCA CITY,OK,74601,RA0432815,NULL,T41604,2017-11-15 01:50:00,dbo,2017-11-15 01:50:00,dbo
1002,1066,AMATHEON INC,PHARMACEUTICAL DISTRIBUTOR,4300 SW 73RD AVENUE,MIAMI,FL,33155,RA0367551,NULL,T41496,2017-11-15 01:50:00,dbo,2017-11-15 01:50:00,dbo
1003,1013,AMERICAN SALES COMPANY,7110 AMBASSADOR ROAD,,BALTIMORE,MD,21244,PG0149650,NULL,T41178,2017-11-15 01:50:00,dbo,2017-11-15 01:50:00,dbo
1004,1066,AMERICAN VETERINARY SUPPLY CORP.,155 KNICKERBOCKER AVENUE,,BOHEMIA,NY,11716,RA0167874,NULL,T41497,2017-11-15 01:50:00,dbo,2017-11-15 01:50:00,dbo
1005,1014,AMERISOURCE HEALTH SERVS CORP,DBA AMERICAN HEALTH PACKAGING,2550 JOHN GLENN AVENUE,COLUMBUS,OH,43217,RA0221325,NULL,T41500,2017-11-15 01:50:00,dbo,2017-11-15 01:50:00,dbo
1006,1012,ABC - Romeoville,1001 West Taylor Road,,Romeoville,IL,60446,RA0322824,NULL,T41042,2017-11-15 01:50:00,dbo,2017-11-15 01:50:00,dbo
1007,1012,ABC - Kansas City,11200 North Congress Avenue,,Kansas City,MO,64153,RA0326276,NULL,T41045,2017-11-15 01:50:00,dbo,2017-11-15 01:50:00,dbo
1008,1012,AMERISOURCEBERGEN DRUG CORP,100 FRIARS BLVD,,THOROFARE,NJ,08086,RA0129937,NULL,T41005,2017-11-15 01:50:00,dbo,2017-11-15 01:50:00,dbo
1009,1012,ABC - Pelham,172 Cahaba Valley Pkwy,,Pelham,AL,35124,RA0223432,NULL,T41006,2017-11-15 01:50:00,dbo,2017-11-15 01:50:00,dbo
1010,1012,ABC - Mansfield,101 Norfolk St,,Mansfield,MA,02048,RA0290724,NULL,T41009,2017-11-15 01:50:00,dbo,2017-11-15 01:50:00,dbo
1011,1012,ABC - Corona,1851 California Ave,,Corona,CA,92881,RA0289050,NULL,T41010,2017-11-15 01:50:00,dbo,2017-11-15 01:50:00,dbo
1012,1012,ABC - Denver,501 West 44Th Ave,,Denver,CO,80216,RA0290988,NULL,T41012,2017-11-15 01:50:00,dbo,2017-11-15 01:50:00,dbo
1013,1012,ABC - Honolulu,238 Sand Island Access Rd #M1,,Honolulu,HI,96819,RA0289048,NULL,T41014,2017-11-15 01:50:00,dbo,2017-11-15 01:50:00,dbo
1014,1012,ABC - Sugar Land,12727 West Airport Blvd,,Sugar Land,TX,77478,RA0289276,NULL,T41015,2017-11-15 01:50:00,dbo,2017-11-15 01:50:00,dbo
1015,1012,ABC - Eden Prairie,6810 Shady Oak Rd,,Eden Prairie,MN,55344,RE0161733,NULL,T41020,2017-11-15 01:50:00,dbo,2017-11-15 01:50:00,dbo
1016,1012,AMERISOURCEBERGEN DRUG CORP,2100 DIRECTORS ROW,,ORLANDO,FL,32809,RA0210409,NULL,T41021,2017-11-15 01:50:00,dbo,2017-11-15 01:50:00,dbo
1017,1012,ABC - Paducah,322 N 3Rd Street,,Paducah,KY,42001,PL0032627,NULL,T41022,2017-11-15 01:50:00,dbo,2017-11-15 01:50:00,dbo
1018,1012,ABC - Suwanee,1085 N. Satellite Blvd,,Suwanee,GA,30024,RA0291170,NULL,T41023,2017-11-15 01:50:00,dbo,2017-11-15 01:50:00,dbo
1019,1012,ABC - Glen Allen,9900 J.E.B. Stuart Parkway,,Glen Allen,VA,23059,RA0289000,NULL,T41027,2017-11-15 01:50:00,dbo,2017-11-15 01:50:00,dbo
1020,1012,ABC - Kent,19220 64Th Avenue South,,Kent,WA,98032,RA0290938,NULL,T41030,2017-11-15 01:50:00,dbo,2017-11-15 01:50:00,dbo
1021,1012,ABC - Lockbourne,6305 Lasalle Dr,,Lockbourne,OH,43137,RA0314562,NULL,T41033,2017-11-15 01:50:00,dbo,2017-11-15 01:50:00,dbo
1022,1012,ABC - Valencia,24903 Avenue Kearny,,Valencia,CA,91355,RA0289062,NULL,T41034,2017-11-15 01:50:00,dbo,2017-11-15 01:50:00,dbo
1023,1012,ABC - Phoenix,1825 S. 43Rd Ave Ste B,,Phoenix,AZ,85009,RA0290837,NULL,T41035,2017-11-15 01:50:00,dbo,2017-11-15 01:50:00,dbo
1024,1012,ABC - Salt Lake City,1765 Fremont Drive,,Salt Lake City,UT,84104,RA0289098,NULL,T41036,2017-11-15 01:50:00,dbo,2017-11-15 01:50:00,dbo
1025,1012,ABC - Sacramento,1325 West Striker Ave,,Sacramento,CA,95834,RA0310603,NULL,T41039,2017-11-15 01:50:00,dbo,2017-11-15 01:50:00,dbo
1026,1012,ABC - BellCo,5500 New Horizons Blvd,,N. Amityville,NY,11701,RB0363630,NULL,T41046,2017-11-15 01:50:00,dbo,2017-11-15 01:50:00,dbo
1027,1012,ABC - Morrisville,120 Trans Air Drive,,Morrisville,NC,27560,RA0363301,NULL,T41464,2017-11-15 01:50:00,dbo,2017-11-15 01:50:00,dbo
1028,1012,ABC - Williamston,1 Industrial Park Dr.,,Williamston,MI,48895,RA0290736,NULL,T41041,2017-11-15 01:50:00,dbo,2017-11-15 01:50:00,dbo
1029,1012,ABC - Bethlehem,5100 Jaindl Blvd.,,Bethlehem,PA,18017,RA0336924,NULL,T41360,2017-11-15 01:50:00,dbo,2017-11-15 01:50:00,dbo
1030,1012,ABC - Roanoke,501 Patriot Parkway,,Roanoke,TX,76262,RA0316958,NULL,T41040,2017-11-15 01:50:00,dbo,2017-11-15 01:50:00,dbo
1031,1012,ABC - Orlando,10910 Lee Vista Boulevard Suite 401,,Orlando,FL,32829,RA0464406,NULL,T41622,2017-11-15 01:50:00,dbo,2017-11-15 01:50:00,dbo
1032,1015,ANDA PHARMACEUTICALS INC,2915 WESTON ROAD,,WESTON,FL,33331,RA0180733,NULL,T41174,2017-11-15 01:50:00,dbo,2017-11-15 01:50:00,dbo
1033,1015,ANDA PHARMACEUTICALS INC,6500 ADELAIDE COURT,,GROVEPORT,OH,43125,RA0287020,NULL,T41175,2017-11-15 01:50:00,dbo,2017-11-15 01:50:00,dbo
1034,1017,"ANDA PHARMACEUTICALS, INC",8644 POLK LANE,,OLIVE BRANCH,MS,38654,RA0481894,NULL,T41601,2017-11-15 01:50:00,dbo,2017-11-15 01:50:00,dbo
1035,1016,"ANDA PUERTO RICO, INC.",PR#2 KM 19.5,BO. CANDELARIA,TOA BAJA,PR,00949,RA0394748,NULL,T41553,2017-11-15 01:50:00,dbo,2017-11-15 01:50:00,dbo
1036,1018,ASSOCIATED PHARMACIES INC,API,211 LONNIE CRAWFORD BLVD,SCOTTSBORO,AL,35769,RA0264325,NULL,T41176,2017-11-15 01:50:00,dbo,2017-11-15 01:50:00,dbo
1037,1018,"ASSOCIATED PHARMACIES, INC.",D/B/A APIRX,5375 MINERAL WELLS ROAD,MEMPHIS,TN,38141,RA0429375,NULL,T41609,2017-11-15 01:50:00,dbo,2017-11-15 01:50:00,dbo
1038,1019,AUBURN PHARMACEUTICAL,2360 BELLINGHAM,,TROY,MI,48083,RA0186014,NULL,T41382,2017-11-15 01:50:00,dbo,2017-11-15 01:50:00,dbo
1039,1019,AUBURN PHARMACEUTICAL COMPANY,"DANIEL HACKLEY, WAREHOUSE MANAGER",1979 SOUTH 4130 WEST,SALT LAKE CITY,UT,84104,RA0411328,NULL,T41537,2017-11-15 01:50:00,dbo,2017-11-15 01:50:00,dbo
1040,1021,BLOODWORTH WHOLESALE DRUGS,2128 YANK LAMB DRIVE,P.O. BOX 1849,TIFTON,GA,31793,PB0167127,NULL,T41383,2017-11-15 01:50:00,dbo,2017-11-15 01:50:00,dbo
1041,1022,BURLINGTON DRUG COMPANY,91 CATAMOUNT DR,,MILTON,VT,05468,PB0020139,NULL,T41052,2017-11-15 01:50:00,dbo,2017-11-15 01:50:00,dbo
1042,1023,CARDINAL HEALTH,3540 EAST PIKE,,ZANESVILLE,OH,43701,RN0209583,NULL,T41606,2017-11-15 01:50:00,dbo,2017-11-15 01:50:00,dbo
1043,1023,Cardinal Health - Peabody,11 Centennial Drive,,Peabody,MA,01960,RD0108200,NULL,T41057,2017-11-15 01:50:00,dbo,2017-11-15 01:50:00,dbo
1044,1023,Cardinal Health - Aurora,2353 Prospect Dr,,Aurora,IL,60502,RW0231908,NULL,T41058,2017-11-15 01:50:00,dbo,2017-11-15 01:50:00,dbo
1045,1023,Cardinal Health - Madison,1240 Gluckstadt Road,,Madison,MS,39110,RC0221236,NULL,T41060,2017-11-15 01:50:00,dbo,2017-11-15 01:50:00,dbo
1046,1023,Cardinal Health - Kansas City,7601 N.E. Gardner Avenue,,Kansas City,MO,64120,RW0191926,NULL,T41061,2017-11-15 01:50:00,dbo,2017-11-15 01:50:00,dbo
1047,1023,Cardinal Health - Lakeland,2045 Interstate Drive,,Lakeland,FL,33805,RC0182080,NULL,T41062,2017-11-15 01:50:00,dbo,2017-11-15 01:50:00,dbo
1048,1023,Cardinal Health - Knoxville,2512 Westcott Blvd,,Knoxville,TN,37931,RC0238104,NULL,T41063,2017-11-15 01:50:00,dbo,2017-11-15 01:50:00,dbo
1049,1023,Cardinal Health - Tolleson,600 N 83Rd Ave,,Tolleson,AZ,85353,RW0263056,NULL,T41064,2017-11-15 01:50:00,dbo,2017-11-15 01:50:00,dbo
1050,1023,Cardinal Health - Salt Lake City,955 West 3100 South,,South Salt Lake City,UT,84119,RW0191419,NULL,T41065,2017-11-15 01:50:00,dbo,2017-11-15 01:50:00,dbo
1051,1023,Cardinal Health - Auburn,801 C Street Nw Suite B,,Auburn,WA,98001,RW0191813,NULL,T41066,2017-11-15 01:50:00,dbo,2017-11-15 01:50:00,dbo
1052,1023,Cardinal Health - Syracuse,6012 Molloy Rd,,Syracuse,NY,13211,PC0003044,NULL,T41067,2017-11-15 01:50:00,dbo,2017-11-15 01:50:00,dbo
1053,1023,Cardinal Health - Valencia,27680 Avenue Mentry,,Valencia,CA,91355,RW0216449,NULL,T41068,2017-11-15 01:50:00,dbo,2017-11-15 01:50:00,dbo
1054,1023,Cardinal Health - Elk Grove,3238 Dwight Rd,,Elk Grove,CA,95758,RW0236009,NULL,T41069,2017-11-15 01:50:00,dbo,2017-11-15 01:50:00,dbo
1055,1023,Cardinal Health - Greensboro,4 Cardinal Health Court,,Greensboro,NC,27407,RW0243903,NULL,T41070,2017-11-15 01:50:00,dbo,2017-11-15 01:50:00,dbo
1056,1023,Cardinal Health - Hudson,2901 Enloe St,,Hudson,WI,54016,RW0243725,NULL,T41071,2017-11-15 01:50:00,dbo,2017-11-15 01:50:00,dbo
1057,1023,Cardinal Health - Denver,4875 Florence Street,,Denver,CO,80238,RW0263549,NULL,T41072,2017-11-15 01:50:00,dbo,2017-11-15 01:50:00,dbo
1058,1023,Cardinal Health - Swedesboro,1120 Commerce Blvd,,Swedesboro,NJ,08085,RW0269654,NULL,T41073,2017-11-15 01:50:00,dbo,2017-11-15 01:50:00,dbo
1059,1023,Cardinal Health - Roanoke,851 Henrietta Creek Rd,,Roanoke,TX,76262,RW0279996,NULL,T41075,2017-11-15 01:50:00,dbo,2017-11-15 01:50:00,dbo
1060,1023,Cardinal Health - Saint Charles,2840 Elm Point Industrial Drive,,Saint Charles,MO,63301,RW0283452,NULL,T41077,2017-11-15 01:50:00,dbo,2017-11-15 01:50:00,dbo
1061,1023,Cardinal Health - Wheeling,71 Mil Acres Drive,,Wheeling,WV,26003,RO0153609,NULL,T41079,2017-11-15 01:50:00,dbo,2017-11-15 01:50:00,dbo
1062,1023,Cardinal Health - Stafford,13651 Dublin Ct,,Stafford,TX,77477,RC0333524,NULL,T41355,2017-11-15 01:50:00,dbo,2017-11-15 01:50:00,dbo
1063,1023,CARDINAL HEALTH,5995 COMMERCE CENTER DR,,GROVEPORT,OH,43125,RC0314891,NULL,T41475,2017-11-15 01:50:00,dbo,2017-11-15 01:50:00,dbo
1064,1023,CARDINAL HEALTH,850 AIRPARK DRIVE,,ZANESVILLE,OH,43701,RC0346658,NULL,T41541,2017-11-15 01:50:00,dbo,2017-11-15 01:50:00,dbo
1065,1023,Cardinal Health - Guaynabo Pr,Centro Internacional De Distribucion,,Guaynabo,PR,00965,RB0374683,NULL,T41628,2017-11-15 01:50:00,dbo,2017-11-15 01:50:00,dbo
1066,1026,"CAREMARK FLORIDA MAIL PHARMACY, LLC",15800 SW 25TH ST,D/B/A CVS CAREMARK,MIRAMAR,FL,33027,BC8610354,NULL,T41313,2017-11-15 01:50:00,dbo,2017-11-15 01:50:00,dbo
1067,1026,CAREMARK ILLINOIS MAIL PHARMACY LLC,DBA CVS CAREMARK,800 BIERMANN COURT,MOUNT PROSPECT,IL,60056,BC9074422,NULL,T41311,2017-11-15 01:50:00,dbo,2017-11-15 01:50:00,dbo
1068,1051,CATAMARAN HOME DELIVERY OF FLORIDA INC,CATAMARAN HOME DELIVERY,9994 PREMIER PKWY,MIRAMAR,FL,33025,BN8116318,NULL,T41519,2017-11-15 01:50:00,dbo,2017-11-15 01:50:00,dbo
1069,1027,"CEDARDALE DISTRIBUTORS LLC, D/B/A GEN-SO",620 GOTHAM PARKWAY,,CARLSTADT,NJ,07072,RC0282498,NULL,T41180,2017-11-15 01:50:00,dbo,2017-11-15 01:50:00,dbo
1070,1096,CIGNA HOME DELIVERY PHARMACY,206 WELSH ROAD,,HORSHAM,PA,19044,BT6545048,NULL,T41438,2017-11-15 01:50:00,dbo,2017-11-15 01:50:00,dbo
1071,1097,CIGNA HOME DELIVERY PHARMACY,TEL-DRUG INC,4901 N. 4TH AVE.,SIOUX FALLS,SD,57104,BT3875208,NULL,T41437,2017-11-15 01:50:00,dbo,2017-11-15 01:50:00,dbo
1072,1028,"CIGNA, CENTRAL PROCESSING",9014 N. 23RD AVENUE,STES 14 & 15,PHOENIX,AZ,85021,BC6368763,NULL,T41439,2017-11-15 01:50:00,dbo,2017-11-15 01:50:00,dbo
1073,1026,CVS CAREMARK,"CAREMARK TEXAS MAIL PHARMACY, LLC",7034 ALAMO DOWNS PARKWAY,SAN ANTONIO,TX,78238,BC9060459,NULL,T41312,2017-11-15 01:50:00,dbo,2017-11-15 01:50:00,dbo
1074,1026,CVS CAREMARK,1 GREAT VALLEY BOULEVARD,,WILKES BARRE,PA,18706,BC9180061,NULL,T41322,2017-11-15 01:50:00,dbo,2017-11-15 01:50:00,dbo
1075,1026,CVS CAREMARK ADVANCED TECHNOLOGY PHARMAC,D/B/A CVS CAREMARK (III),1780 WALL STREET,MT PROSPECT,IL,60056,FC3186815,NULL,T41607,2017-11-15 01:50:00,dbo,2017-11-15 01:50:00,dbo
1076,1029,CVS INDIANA,"7590 EMPIRE DR, DOORS 116-123",,INDIANAPOLIS,IN,46219,RH0197170,NULL,T41391,2017-11-15 01:50:00,dbo,2017-11-15 01:50:00,dbo
1077,1029,CVS ORLANDO FL DISTRIBUTION,LLC,8201 CHANCELLOR DRIVE,ORLANDO,FL,32809,RC0318128,NULL,T41393,2017-11-15 01:50:00,dbo,2017-11-15 01:50:00,dbo
1078,1029,CVS PHARMACY INC,777 S HARBOR BLVD,SUITE D-152,LA HABRA,CA,90631,RC0347725,NULL,T41396,2017-11-15 01:50:00,dbo,2017-11-15 01:50:00,dbo
1079,1029,CVS PHARMACY INC,"150 INDUSTRIAL DR., WRHS #2",,NORTH SMITHFIELD,RI,02896,PM0124723,NULL,T41388,2017-11-15 01:50:00,dbo,2017-11-15 01:50:00,dbo
1080,1029,"CVS PHARMACY, INC",800 CVS DRIVE,,ENNIS,TX,75119,RC0275467,NULL,T41394,2017-11-15 01:50:00,dbo,2017-11-15 01:50:00,dbo
1081,1029,"CVS PHARMACY, INC.",225 HARPERS LANDING BLVD,,CONROE,TX,77385,RC0315108,NULL,T41611,2017-11-15 01:50:00,dbo,2017-11-15 01:50:00,dbo
1082,1029,"CVS PHARMACY, INC.",3 BERRY DRIVE,,LUMBERTON,NJ,08048,RM0145347,NULL,T41389,2017-11-15 01:50:00,dbo,2017-11-15 01:50:00,dbo
1083,1029,"CVS RX SERVICES, INC",DBA:CVS/ PHARMACY DISTRIBUTION,CENTER,CHEMUNG,NY,14825,RC0415871,NULL,T41549,2017-11-15 01:50:00,dbo,2017-11-15 01:50:00,dbo
1084,1029,"CVS TN DISTRIBUTION, LLC",10017 KINGSTON PIKE,,KNOXVILLE,TN,37922,PR0205559,NULL,T41390,2017-11-15 01:50:00,dbo,2017-11-15 01:50:00,dbo
1085,1029,"CVS VERO FL DISTRIBUTION, L.L.C",2575-77 98TH AVE,,VERO BEACH,FL,32966,RC0338031,NULL,T41395,2017-11-15 01:50:00,dbo,2017-11-15 01:50:00,dbo
1086,1030,DAKOTA DRUG,28 NORTH MAIN STREET,,MINOT,ND,58703,RD0246721,NULL,T41086,2017-11-15 01:50:00,dbo,2017-11-15 01:50:00,dbo
1087,1030,DAKOTA DRUG,4121 12TH AVENUE NW,,FARGO,ND,58102,RD0244842,NULL,T41087,2017-11-15 01:50:00,dbo,2017-11-15 01:50:00,dbo
1088,1030,DAKOTA DRUG INC.,1101 LUND BLVD.,P O BOX 877,ANOKA,MN,55303,RD0352637,NULL,T41430,2017-11-15 01:50:00,dbo,2017-11-15 01:50:00,dbo
1089,1031,"DIK DRUG COMPANY, LLC",160 TOWER DRIVE,SUITE 1,BURR RIDGE,IL,60527,RD0430481,NULL,T41088,2017-11-15 01:50:00,dbo,2017-11-15 01:50:00,dbo
1090,1033,DISCOUNT DRUG MART,211 COMMERCE DRIVE,,MEDINA,OH,44256,PD0203377,NULL,T41089,2017-11-15 01:50:00,dbo,2017-11-15 01:50:00,dbo
1091,1009,"DOHMEN LIFE SCIENCE SERVICES, LLC",4580 MENDENHALL ROAD,,MEMPHIS,TN,38141,RD0205333,NULL,T4200,2017-11-15 01:50:00,dbo,2017-11-15 01:50:00,dbo
1092,1002,"DOHMEN LIFE SCIENCE SERVICES, LLC",1560A S BAKER AVE,,ONTARIO,CA,91761,RD0284911,NULL,T4102,2017-11-15 01:50:00,dbo,2017-11-15 01:50:00,dbo
1093,1008,DOMINICKS FINER FOODS,DOMINICKS PHARMACY 1154,19965 S LAGRANGE ROAD,FRANKFORT,IL,60423,BD6037089,NULL,T41602,2017-11-15 01:50:00,dbo,2017-11-15 01:50:00,dbo
1094,1034,"DROGUERIA BETANCES, INC.",AVE LUIS MUNOZ MARIN ESQ. TROCHE ANGORA,"BO TOMAS DE CASTRO, CAGUAS PR 00725",CAGUAS,PR,00725,RD0369947,NULL,T41635,2017-11-15 01:50:00,dbo,2017-11-15 01:50:00,dbo
1095,1033,DRUGS UNLIMITED INC,AVENIDA SAN IGNACIO #1366,URB. ALTAMESA,SAN JUAN,PR,00921,RD0276546,NULL,T41386,2017-11-15 01:50:00,dbo,2017-11-15 01:50:00,dbo
1096,1103,DUANE READE,50-02 55TH AVE,,MASPETH,NY,11378,RD0330720,NULL,T41554,2017-11-15 01:50:00,dbo,2017-11-15 01:50:00,dbo
1097,1035,DUNCAN PRESCRIPTION CENTER,315 WEST BROADWAY,,MAYFIELD,KY,42066,FD5472410,NULL,T41642,2017-11-15 01:50:00,dbo,2017-11-15 01:50:00,dbo
1098,1036,DUNN MEADOW PHARMACY,"1555 CENTER AVE, FIRST FLOOR",,FORT LEE,NJ,07024,FD5132624,NULL,T41640,2017-11-15 01:50:00,dbo,2017-11-15 01:50:00,dbo
1099,1066,D-V MEDICAL SUPPLY,2000 W. 135TH STREET,,GARDENA,CA,90249,RD0233938,NULL,T41508,2017-11-15 01:50:00,dbo,2017-11-15 01:50:00,dbo
1100,1088,ECKERD CORPORATION,D/B/A RITE AID LIVERPOOL DISTRIBUTION CE,7245 HENRY CLAY BLVD,LIVERPOOL,NY,13088,RE0356003,NULL,T41507,2017-11-15 01:50:00,dbo,2017-11-15 01:50:00,dbo
1101,1039,ESI MAIL PHARMACY SERVICE,DBA EXPRESS SCRIPTS,7909 SOUTH HARDY,TEMPE,AZ,85284,BE8131625,NULL,T41364,2017-11-15 01:50:00,dbo,2017-11-15 01:50:00,dbo
1102,1037,EXPRESS SCRIPTS,3684 MARSHALL LANE,,BENSALEM,PA,19020,BE6812754,NULL,T41362,2017-11-15 01:50:00,dbo,2017-11-15 01:50:00,dbo
1103,1038,EXPRESS SCRIPTS,ESI MAIL PHARMACY SERVICE INC,4600 N HANLEY RD,SAINT LOUIS,MO,63134,BE6824317,NULL,T41512,2017-11-15 01:50:00,dbo,2017-11-15 01:50:00,dbo
1104,1040,FRANK W KERR INC,43155 W 9 MILE RD,,NOVI,MI,48376,PF0031120,NULL,T41596,2017-11-15 01:50:00,dbo,2017-11-15 01:50:00,dbo
1105,1042,"GENERAL INJECTABLES & VACCINES,INC",DBA GIV,80 SUMMIT VIEW LANE,BASTIAN,VA,24314,PG0229321,NULL,T41367,2017-11-15 01:50:00,dbo,2017-11-15 01:50:00,dbo
1106,1041,GENETCO INC,711 UNION PARKWAY,,RONKONKOMA,NY,11779,RG0103553,NULL,T41387,2017-11-15 01:50:00,dbo,2017-11-15 01:50:00,dbo
1107,1007,GIANT PHARMACY #744,5740 UNION MILL ROAD,,CLIFTON,VA,20124,BG3522984,NULL,T41600,2017-11-15 01:50:00,dbo,2017-11-15 01:50:00,dbo
1108,1045,H. D. SMITH WHOLESALE DRUG,6001 GLOBAL DISTRIBUTION WAY,SUITE 102,LOUISVILLE,KY,40228,RH0347282,NULL,T41414,2017-11-15 01:50:00,dbo,2017-11-15 01:50:00,dbo
1109,1045,"H. D. SMITH, LLC",1370 E. VICTORIA STREET,,CARSON,CA,90746,RH0472388,NULL,T41469,2017-11-15 01:50:00,dbo,2017-11-15 01:50:00,dbo
1110,1045,H D Smith - Stratham,8 Marin Way,,Stratham,NH,03885,RH0466931,NULL,T41624,2017-11-15 01:50:00,dbo,2017-11-15 01:50:00,dbo
1111,1045,H D Smith - Louisville,6001 Global Distribution Way,,Louisville,KY,40228,RH0468214,NULL,T41625,2017-11-15 01:50:00,dbo,2017-11-15 01:50:00,dbo
1112,1045,"H. D. SMITH, LLC",670 BELLEVILLE TURNPIKE,,KEARNY,NJ,07032,RH0475182,NULL,T41629,2017-11-15 01:50:00,dbo,2017-11-15 01:50:00,dbo
1113,1045,H D Smith - Pompano Beach,1901 Nw 25Th Avenue,,Pompano Beach,FL,33069,RH0478075,NULL,T41097,2017-11-15 01:50:00,dbo,2017-11-15 01:50:00,dbo
1114,1045,H D Smith - Springfield,4650 Industrial Drive,,Springfield,IL,62703,RH0471021,NULL,T41092,2017-11-15 01:50:00,dbo,2017-11-15 01:50:00,dbo
1115,1045,"H. D. SMITH, LLC","1650 LAKESIDE PARKWAY, SUITE 400",,FLOWER MOUND,TX,75028,RH0468810,NULL,T41093,2017-11-15 01:50:00,dbo,2017-11-15 01:50:00,dbo
1116,1088,HARCO,DBA: TUSCALOOSA DISTRIBUTION,CENTER,TUSCALOOSA,AL,35406,RH0231124,NULL,T41145,2017-11-15 01:50:00,dbo,2017-11-15 01:50:00,dbo
1117,1044,HBC SERVICE COMPANY,"DIV. OF GIANT EAGLE, INC.",601A MEADOWLANDS BOULEVARD,WASHINGTON,PA,15301,RH0389773,NULL,T41429,2017-11-15 01:50:00,dbo,2017-11-15 01:50:00,dbo
1118,1045,HD SMITH,8 MARIN WAY,,STRATHAM,NH,03885,RH0340896,NULL,T41406,2017-11-15 01:50:00,dbo,2017-11-15 01:50:00,dbo
1119,1056,HEALTHSPAN INTEGRATED CARE,5420 LANCASTER DR.,ARC PHARMACY,BROOKLYN HEIGHTS,OH,44131,BK8461876,NULL,T41485,2017-11-15 01:50:00,dbo,2017-11-15 01:50:00,dbo
1120,1046,"HEB GROCERY COMPANY, LP",HEB PHARMACY WAREHOUSE,6520 FRATT RD,SAN ANTONIO,TX,78218,RH0277067,NULL,T41098,2017-11-15 01:50:00,dbo,2017-11-15 01:50:00,dbo
1121,1047,HENRY SCHEIN INC,5315 WEST 74TH STREET,,INDIANAPOLIS,IN,46268,RH0162494,NULL,T41350,2017-11-15 01:50:00,dbo,2017-11-15 01:50:00,dbo
1122,1047,HENRY SCHEIN INC,8691 JESSE B. SMITH COURT,,JACKSONVILLE,FL,32219,RH0284199,NULL,T41352,2017-11-15 01:50:00,dbo,2017-11-15 01:50:00,dbo
1123,1047,HENRY SCHEIN INC,255 VISTA BLVD,,SPARKS,NV,89434,RH0181709,NULL,T41502,2017-11-15 01:50:00,dbo,2017-11-15 01:50:00,dbo
1124,1047,"HENRY SCHEIN, INC",1001 NOLEN DRIVE,SUITE # 400,GRAPEVINE,TX,76051,RH0238192,NULL,T41351,2017-11-15 01:50:00,dbo,2017-11-15 01:50:00,dbo
1125,1047,"HENRY SCHEIN, INC",41 WEAVER ROAD,,DENVER,PA,17517,RH0236667,NULL,T41349,2017-11-15 01:50:00,dbo,2017-11-15 01:50:00,dbo
1126,1005,HERITAGE PHARMACY,275 N EL CIELO,C4,PALM SPRINGS,CA,92262,BH6533790,NULL,T41561,2017-11-15 01:50:00,dbo,2017-11-15 01:50:00,dbo
1127,1048,"HUMANA PHARMACY, INC",4302 WEST BUCKEYE ROAD,,PHOENIX,AZ,85043,BH9569851,NULL,T41618,2017-11-15 01:50:00,dbo,2017-11-15 01:50:00,dbo
1128,1048,"HUMANA PHARMACY, INC.",9843 WINDISCH ROAD,,WEST CHESTER,OH,45069,FH0825313,NULL,T41619,2017-11-15 01:50:00,dbo,2017-11-15 01:50:00,dbo
1129,1049,HY-VEE,1802 OSCEOLA AVENUE,,CHARITON,IA,50049,RH0211374,NULL,T41100,2017-11-15 01:50:00,dbo,2017-11-15 01:50:00,dbo
1130,1050,INDEPENDENT PHARMACY COOPERATIVE,5610 S 40TH STREET SUITE 1,,PHOENIX,AZ,85040,RI0452007,NULL,T41633,2017-11-15 01:50:00,dbo,2017-11-15 01:50:00,dbo
1131,1069,J KNIPPER & COMPANY INC,ONE HEALTHCARE WAY,,LAKEWOOD,NJ,08701,RJ0292487,NULL,T41565,2017-11-15 01:50:00,dbo,2017-11-15 01:50:00,dbo
1132,1012,ABC - Jm Blanco Inc,Calle Diana Lote 21,,Guaynabo,PR,00968,RJ0249563,NULL,T41634,2017-11-15 01:50:00,dbo,2017-11-15 01:50:00,dbo
1133,1059,KAISER FOUNDATION HOSPITALS,5800 COLISEUM WAY,,OAKLAND,CA,94621,RK0285444,NULL,T41480,2017-11-15 01:50:00,dbo,2017-11-15 01:50:00,dbo
1134,1054,KAISER FOUNDATION HOSPITALS,9521 DALEN ST,,DOWNEY,CA,90242,PK0132706,NULL,T41482,2017-11-15 01:50:00,dbo,2017-11-15 01:50:00,dbo
1135,1060,KAISER PERMANENTE,REFILL PHARMACY,4000 DEKALB TECH PARKWAY,ATLANTA,GA,30340,BK7832911,NULL,T41597,2017-11-15 01:50:00,dbo,2017-11-15 01:50:00,dbo
1136,1058,KAISER PERMANENTE MID-ATLANTIC STATES,PHARMACY DISTRIBUTION CENTER,22370 DAVIS DRIVE,STERLING,VA,20164,RK0188448,NULL,T41612,2017-11-15 01:50:00,dbo,2017-11-15 01:50:00,dbo
1137,1055,KAISER PERMANENTE RX CHOICE,1890 METRO CENTER DRIVE,,RESTON,VA,20190,BK4663755,NULL,T41483,2017-11-15 01:50:00,dbo,2017-11-15 01:50:00,dbo
1138,1057,"KAISER PERMANENTE,",16601 E. CENTRETECH PKWY,,AURORA,CO,80011,RK0297920,NULL,T41490,2017-11-15 01:50:00,dbo,2017-11-15 01:50:00,dbo
1139,1062,"KERR DRUG, INC.",1230 EAST ANDREWS AVENUE,,HENDERSON,NC,27536,RK0435873,NULL,T41101,2017-11-15 01:50:00,dbo,2017-11-15 01:50:00,dbo
1140,1023,Cardinal Health - Kinray Drug Co Inc,152-35 10Th Avenue,,Whitestone,NY,11357,RK0416900,NULL,T41555,2017-11-15 01:50:00,dbo,2017-11-15 01:50:00,dbo
1141,1064,KROGER LIMITED PARTNERSHIP I,DBA PEYTON'S SOUTHEASTERN,153 REFRESHMENT LANE,CLEVELAND,TN,37311,RK0233180,NULL,T41419,2017-11-15 01:50:00,dbo,2017-11-15 01:50:00,dbo
1142,1063,KROGER LIMITED PARTNERSHIP II,DBA PEYTON'S NORTHERN,1111 SOUTH ADAMS STREET,BLUFFTON,IN,46714,PP0220828,NULL,T41420,2017-11-15 01:50:00,dbo,2017-11-15 01:50:00,dbo
1143,1086,LAKE ERIE MEDICAL,DBA QUALITY CARE PRODUCTS LLC,6920 HALL STREET,HOLLAND,OH,43528,RL0330148,NULL,T41613,2017-11-15 01:50:00,dbo,2017-11-15 01:50:00,dbo
1144,1102,LEGACY PHARMACEUTICAL PACKAGING,13480 LAKEFRONT DRIVE,,EARTH CITY,MO,63045,RL0312013,NULL,T41595,2017-11-15 01:50:00,dbo,2017-11-15 01:50:00,dbo
1145,1029,"LONGS DRUG STORES CALIFORNIA, LLC",D.B.A. CVS DISTRIBUTION CENTER,2400 KEYSTONE PACIFIC PKWY,PATTERSON,CA,95363,RL0387058,NULL,T41498,2017-11-15 01:50:00,dbo,2017-11-15 01:50:00,dbo
1146,1067,LOUISIANA WHOLESALE DRUG CO,2085 I-49 SOUTH SERVICE ROAD,,SUNSET,LA,70584,PL0184933,NULL,T41315,2017-11-15 01:50:00,dbo,2017-11-15 01:50:00,dbo
1147,1065,M W I VETERINARY SUPPLY,DBA/MWI ANIMAL HEALTH,8900 W. HURLEY AVENUE,VISALIA,CA,93291,RM0183094,NULL,T41462,2017-11-15 01:50:00,dbo,2017-11-15 01:50:00,dbo
1148,1065,M W I VETERINARY SUPPLY CO,DBA/MWI ANIMAL HEALTH,2117 NORTH ELDER STREET,NAMPA,ID,83687,PM0226642,NULL,T41458,2017-11-15 01:50:00,dbo,2017-11-15 01:50:00,dbo
1149,1003,MAP INTERNATIONAL,4700 GLYNCO PARKWAY,,BRUNSWICK,GA,31525,RM0184250,NULL,T41524,2017-11-15 01:50:00,dbo,2017-11-15 01:50:00,dbo
1150,1006,"MARYLAND CVS PHARMACY, L.L.C.",DBA: CVS/PHARMACY # 01491,8859 BRANCH AVENUE,CLINTON,MD,20735,AP2320719,NULL,T41599,2017-11-15 01:50:00,dbo,2017-11-15 01:50:00,dbo
1151,1068,"MASTERS PHARMACEUTICAL, INC",DBA: RIVER CITY PHARMA,11930 KEMPER SPRINGS,CINCINNATI,OH,45240,RD0277409,NULL,T41434,2017-11-15 01:50:00,dbo,2017-11-15 01:50:00,dbo
1152,1069,Mckesson - Anchorage,5491 Electron Drive Suite A,,Anchorage,AK,99518,RM0227430,NULL,T41104,2017-11-15 01:50:00,dbo,2017-11-15 01:50:00,dbo
1153,1069,Mckesson - Duluth,2975 Evergreen Dr,,Duluth,GA,30096,PR0040357,NULL,T41106,2017-11-15 01:50:00,dbo,2017-11-15 01:50:00,dbo
1154,1069,Mckesson - Methuen,9 Aegean Dr,,Methuen,MA,01844,PM0020850,NULL,T41107,2017-11-15 01:50:00,dbo,2017-11-15 01:50:00,dbo
1155,1069,Mckesson - West Seneca,2700 North America Drive,,West Seneca,NY,14224,PM0003094,NULL,T41108,2017-11-15 01:50:00,dbo,2017-11-15 01:50:00,dbo
1156,1069,Mckesson - Delran,400 Delran Parkway,,Delran,NJ,08075,RM0173055,NULL,T41110,2017-11-15 01:50:00,dbo,2017-11-15 01:50:00,dbo
1157,1069,MCKESSON CORPORATION,DBA MCKESSON DRUG CO.,14500 E 39TH AVE,AURORA,CO,80011,PM0018425,NULL,T41111,2017-11-15 01:50:00,dbo,2017-11-15 01:50:00,dbo
1158,1069,Mckesson - Everett,710 132Nd Street Sw,,Everett,WA,98204,PM0150538,NULL,T41112,2017-11-15 01:50:00,dbo,2017-11-15 01:50:00,dbo
1159,1069,Mckesson - Honolulu,80 Sand Island Access Rd,,Honolulu,HI,96819,PM0001014,NULL,T41113,2017-11-15 01:50:00,dbo,2017-11-15 01:50:00,dbo
1160,1069,Mckesson - La Crosse,3003 Airport Rd,,La Crosse,WI,54603,RM0220537,NULL,T41114,2017-11-15 01:50:00,dbo,2017-11-15 01:50:00,dbo
1161,1069,Mckesson - Santa Fe Springs,9501 S Norwalk,,Santa Fe Springs,CA,90670,PF0000012,NULL,T41116,2017-11-15 01:50:00,dbo,2017-11-15 01:50:00,dbo
1162,1069,Mckesson - Memphis,4836 Southridge Blvd,,Memphis,TN,38141,PM0001951,NULL,T41117,2017-11-15 01:50:00,dbo,2017-11-15 01:50:00,dbo
1163,1069,Mckesson - Oklahoma City,4012 S Purdue Ave,,Oklahoma City,OK,73179,RM0138328,NULL,T41118,2017-11-15 01:50:00,dbo,2017-11-15 01:50:00,dbo
1164,1069,Mckesson - La Vista,7009 South 108 Street,,La Vista,NE,68128,PM0038693,NULL,T41119,2017-11-15 01:50:00,dbo,2017-11-15 01:50:00,dbo
1165,1069,Mckesson - Tolleson,495 S. 107Th Ave.,,Tolleson,AZ,85353,PM0021131,NULL,T41120,2017-11-15 01:50:00,dbo,2017-11-15 01:50:00,dbo
1166,1069,Mckesson - Wilsonville,9700 Sw Commerce Circle,,Wilsonville,OR,97070,PM0022929,NULL,T41121,2017-11-15 01:50:00,dbo,2017-11-15 01:50:00,dbo
1167,1069,Mckesson - Rocky Hill,280 Dividend Rd,,Rocky Hill,CT,06067,PR0104593,NULL,T41123,2017-11-15 01:50:00,dbo,2017-11-15 01:50:00,dbo
1168,1069,McKesson - West Sacramento,3775 SeaPort Blvd,,West Sacramento,CA,95691,PM0021535,NULL,T41124,2017-11-15 01:50:00,dbo,2017-11-22 13:34:00,mhoenig
1169,1069,Mckesson - Salt Lake City,1900 South 4490 West,,Salt Lake City,UT,84104,PM0023046,NULL,T41125,2017-11-15 01:50:00,dbo,2017-11-15 01:50:00,dbo
1170,1069,Mckesson - OFallon,1 Commerce Dr. PO Box 8808,,OFallon,MO,63366,PM0037374,NULL,T41127,2017-11-15 01:50:00,dbo,2017-11-15 01:50:00,dbo
1171,1069,Mckesson - Washington Ct House,3000 Kenskill Ave,,Washington Ct House,OH,43160,RM0220688,NULL,T41129,2017-11-15 01:50:00,dbo,2017-11-15 01:50:00,dbo
1172,1069,Mckesson - Livonia,38220 Plymouth Rd,,Livonia,MI,48150,PM0030849,NULL,T41131,2017-11-15 01:50:00,dbo,2017-11-15 01:50:00,dbo
1173,1069,MCKESSON CORPORATION,DBA MC KESSON DRUG CORP,4853 CRUMPLER,MEMPHIS,TN,38141,RM0207286,NULL,T41132,2017-11-15 01:50:00,dbo,2017-11-15 01:50:00,dbo
1174,1069,Mckesson - New Castle,2798 New Butler Rd,,New Castle,PA,16101,RM0258601,NULL,T41133,2017-11-15 01:50:00,dbo,2017-11-15 01:50:00,dbo
1175,1069,Mckesson - Lakeland,1515 Kendrick Lane,,Lakeland,FL,33805,PM0000771,NULL,T41138,2017-11-15 01:50:00,dbo,2017-11-15 01:50:00,dbo
1176,1069,MCKESSON CORPORATION,DBA MCKESSON DRUG COMPANY,7721 POLK STREET,LANDOVER,MD,20785,PD0029567,NULL,T4115,2017-11-15 01:50:00,dbo,2017-11-15 01:50:00,dbo
1177,1069,Mckesson - Conroe,3301 POllok Drive,,Conroe,TX,77303,RM0328408,NULL,T41409,2017-11-15 01:50:00,dbo,2017-11-15 01:50:00,dbo
1178,1069,Mckesson - Mccalla,6775 Jefferson Metropolitan,,Mccalla,AL,35111,RM0336950,NULL,T41412,2017-11-15 01:50:00,dbo,2017-11-15 01:50:00,dbo
1179,1069,Mckesson - Aurora Illinois,1995 Mckesson St. Suite 101,,Aurora,IL,60502,RM0380484,NULL,T41491,2017-11-15 01:50:00,dbo,2017-11-15 01:50:00,dbo
1180,1069,Mckesson - Ruther Glen,10504 Mckesson Drive,,Ruther Glen,VA,22546,RM0424363,NULL,T41594,2017-11-15 01:50:00,dbo,2017-11-15 01:50:00,dbo
1181,1069,MCKESSON CORPORATION,DBA: MCKESSON DRUG COMPANY,8313 POLK LANE,OLIVE BRANCH,MS,38654,RM0421557,NULL,T41603,2017-11-15 01:50:00,dbo,2017-11-15 01:50:00,dbo
1182,1069,Mckesson - Aurora Colorado,3400 Fraser Street,,Aurora,CO,80011,RM0354958,NULL,T41620,2017-11-15 01:50:00,dbo,2017-11-15 01:50:00,dbo
1183,1069,Mckesson - Robbinsville,1 John Henry Drive,,Robbinsville,NJ,08691,RM0456411,NULL,T41621,2017-11-15 01:50:00,dbo,2017-11-15 01:50:00,dbo
1184,1069,Mckesson - Clear Lake,2101 12Th Ave. S.,,Clear Lake,IA,50428,RM0490590,NULL,T41638,2017-11-15 01:50:00,dbo,2017-11-15 01:50:00,dbo
1185,1069,MCKESSON DRUG COMPANY,DBA MCKESSON DRUG CO.,3230 SPRUCE STREET,LITTLE CANADA,MN,55117,PM0036334,NULL,T41130,2017-11-15 01:50:00,dbo,2017-11-15 01:50:00,dbo
1186,1071,MEDCO HEALTH SOLUTIONS OF,DBA MEDCO HEALTH SOLUTIONS,255 PHILLIPI ROAD,COLUMBUS,OH,43228,BM5206001,NULL,T41472,2017-11-15 01:50:00,dbo,2017-11-15 01:50:00,dbo
1187,1072,MEDCO HEALTH SOLUTIONS OF,DBA MEDCO HEALTH SOLUTIONS,6225 ANNIE OAKLEY DRIVE,LAS VEGAS,NV,89120,BM5243629,NULL,T41473,2017-11-15 01:50:00,dbo,2017-11-15 01:50:00,dbo
1188,1073,MEDCO HEALTH SOLUTIONS OF,"WILLINGBORO, L.L.C.",DBA MEDCO HEALTH SOLUTIONS,WILLINGBORO,NJ,08046,BM7400372,NULL,T41474,2017-11-15 01:50:00,dbo,2017-11-15 01:50:00,dbo
1189,1074,"MEDCO HEALTH SOLUTIONS OF INDIANA, LLC",4750 E. 450 S.,,WHITESTOWN,IN,46075,FM1588586,NULL,T41518,2017-11-15 01:50:00,dbo,2017-11-15 01:50:00,dbo
1190,1075,MEIJER DISTRIBUTION INC #90,2721 WALKER NW,,GRAND RAPIDS,MI,49544,PT0185276,NULL,T41510,2017-11-15 01:50:00,dbo,2017-11-15 01:50:00,dbo
1191,1076,MIAMI-LUKEN,265 S PIONEER BLVD,,SPRINGBORO,OH,45066,PM0031550,NULL,T41318,2017-11-15 01:50:00,dbo,2017-11-15 01:50:00,dbo
1192,1077,Morris & Dickson Company,10301 Highway 1 South,,Shreveport,LA,71115,RM0314790,NULL,T41136,2017-11-15 01:50:00,dbo,2017-11-15 01:50:00,dbo
1193,1065,MWI VETERINARY SUPPLY,5142 WEST LUKE AVENUE,,GLENDALE,AZ,85301,RM0228812,NULL,T41459,2017-11-15 01:50:00,dbo,2017-11-15 01:50:00,dbo
1194,1065,MWI VETERINARY SUPPLY,DBA/MWI ANIMAL HEALTH,5635 GWALTNEY DRIVE,ATLANTA,GA,30336,RM0251708,NULL,T41453,2017-11-15 01:50:00,dbo,2017-11-15 01:50:00,dbo
1195,1065,MWI VETERINARY SUPPLY CO,DBA/MWI ANIMAL HEALTH,2450 MIDPOINT DRIVE,EDWARDSVILLE,KS,66111,RM0357841,NULL,T41455,2017-11-15 01:50:00,dbo,2017-11-15 01:50:00,dbo
1196,1065,MWI VETERINARY SUPPLY CO,DBA/MWI ANIMAL HEALTH,2590 114TH STREET,GRAND PRAIRIE,TX,75050,RM0280747,NULL,T41456,2017-11-15 01:50:00,dbo,2017-11-15 01:50:00,dbo
1197,1065,MWI VETERINARY SUPPLY CO,DBA/MWI ANIMAL HEALTH,4200 B INDUSTRY DR EAST,FIFE,WA,98424,RM0296093,NULL,T41460,2017-11-15 01:50:00,dbo,2017-11-15 01:50:00,dbo
1198,1065,MWI VETERINARY SUPPLY CO,151 DEPOSITION DRIVE,,CLEAR LAKE,WI,54005,RM0342446,NULL,T41450,2017-11-15 01:50:00,dbo,2017-11-15 01:50:00,dbo
1199,1065,MWI VETERINARY SUPPLY CO,DBA/MWI ANIMAL HEALTH,15845 E 32ND AVE,AURORA,CO,80011,RM0156085,NULL,T41451,2017-11-15 01:50:00,dbo,2017-11-15 01:50:00,dbo
1200,1065,MWI VETERINARY SUPPLY CO,DBA/MWI ANIMAL HEALTH,9080 BOGGY CREEK RD STE 100,ORLANDO,FL,32824,RM0338461,NULL,T41452,2017-11-15 01:50:00,dbo,2017-11-15 01:50:00,dbo
1201,1078,N C MUTUAL WHOLESALE DRUG CO,816 ELLIS RD,,DURHAM,NC,27703,PN0033857,NULL,T41137,2017-11-15 01:50:00,dbo,2017-11-15 01:50:00,dbo
1202,1052,NYS DEPT OF CORRECTIONAL SVS,CENTRAL WAREHOUSE,BOX 479,MARCY,NY,13403,PN0161036,NULL,T41471,2017-11-15 01:50:00,dbo,2017-11-15 01:50:00,dbo
1203,1079,OMNICARE DISTRIBUTION CENTER LLC,302 S. BYRNE RD.,BUILDING 200,TOLEDO,OH,43615,RH0334463,NULL,T41505,2017-11-15 01:50:00,dbo,2017-11-15 01:50:00,dbo
1204,1053,OPTUMRX,2858 LOKER AVE EAST,SUITE 100,CARLSBAD,CA,92010,BP9744524,NULL,T41467,2017-11-15 01:50:00,dbo,2017-11-15 01:50:00,dbo
1205,1053,OPTUMRX,OPTUMRX INC,6800 W. 115TH ST,OVERLAND PARK,KS,66211,BP9587847,NULL,T41468,2017-11-15 01:50:00,dbo,2017-11-15 01:50:00,dbo
1206,1004,"PARATA SYSTEMS, TRACY A",3751 S. ALSTON AVE,TRI-CENTER SOUTH BUILDING VIII,DURHAM,NC,27713,RP0348842,NULL,T41536,2017-11-15 01:50:00,dbo,2017-11-15 01:50:00,dbo
1207,1023,Cardinal Health - Parmed Pharmaceuticals,4220 Hyde Park Blvd,,Niagara Falls,NY,14305,RP0337370,NULL,T41378,2017-11-15 01:50:00,dbo,2017-11-15 01:50:00,dbo
1209,1081,PHARMACY BUYING ASSOCIATION,1825 NW VIVION ROAD,,RIVERSIDE,MO,64150,RP0286218,NULL,T41610,2017-11-15 01:50:00,dbo,2017-11-15 01:50:00,dbo
1210,1082,PHARMACY INNOVATIONS,2936 WEST 17TH STREET,,ERIE,PA,16505,BP8752152,NULL,T41641,2017-11-15 01:50:00,dbo,2017-11-15 01:50:00,dbo
1211,1083,PRESCRIPTION SUPPLY INC,2233 TRACY ROAD,,NORTHWOOD,OH,43619,PP0031904,NULL,T41319,2017-11-15 01:50:00,dbo,2017-11-15 01:50:00,dbo
1212,1084,"PUBLIX SUPER MARKETS, INC.",1950 SAND LAKE RD.,BLDG 3,ORLANDO,FL,32809,RP0331924,NULL,T41376,2017-11-15 01:50:00,dbo,2017-11-15 01:50:00,dbo
1213,1085,QUEST PHARMACEUTICALS INC,300 EAST CHESTNUT STREET,PO BOX 270,MURRAY,KY,42071,RQ0188981,NULL,T41379,2017-11-15 01:50:00,dbo,2017-11-15 01:50:00,dbo
1214,1091,RICHIE PHARMACAL LLC,119 STATE AVENUE,,GLASGOW,KY,42141,RR0355683,NULL,T41380,2017-11-15 01:50:00,dbo,2017-11-15 01:50:00,dbo
1215,1088,RITE AID MID-ATLANTIC,CUSTOMER SUPPORT CENTER,601 CHELSEA ROAD,ABERDEEN,MD,21001,RR0236073,NULL,T41142,2017-11-15 01:50:00,dbo,2017-11-15 01:50:00,dbo
1216,1089,RMC PHARMA INC,123 QUINTON AVE,SUITE A,MUNFORD,TN,38058,RR0484927,NULL,T41632,2017-11-15 01:50:00,dbo,2017-11-15 01:50:00,dbo
1217,1090,ROCHESTER DRUG CO-OPERATIVE INC,50 JETVIEW DRIVE,,ROCHESTER,NY,14624,PR0003032,NULL,T41146,2017-11-15 01:50:00,dbo,2017-11-15 01:50:00,dbo
1218,1087,ROCHESTER DRUG CO-OPERATIVE INC NJ,FAIRFIELD,116 LEHIGH DRIVE,FAIRFIELD,NJ,07004,RR0480676,NULL,T41639,2017-11-15 01:50:00,dbo,2017-11-15 01:50:00,dbo
1219,1092,SAFE CHAIN,822 CHESAPEAKE DRIVE,,CAMBRIDGE,MD,21613,RS0477617,NULL,T41637,2017-11-15 01:50:00,dbo,2017-11-15 01:50:00,dbo
1220,1093,SCHNUCKS PHARMACY DISTRIBUTION CTR,12921 ENTERPRISE WAY,,BRIDGETON,MO,63044,,NULL,T41417,2017-11-15 01:50:00,dbo,2017-11-15 01:50:00,dbo
1221,1094,SMITH DRUG COMPANY,DIVISION JM SMITH CORP,9098 FAIRFOREST ROAD,SPARTANBURG,SC,29301,PS0001723,NULL,T41155,2017-11-15 01:50:00,dbo,2017-11-15 01:50:00,dbo
1222,1094,SMITH DRUG COMPANY,1104 JONES ROAD,,PARAGOULD,AR,72450,RS0319790,NULL,T41156,2017-11-15 01:50:00,dbo,2017-11-15 01:50:00,dbo
1223,1094,SMITH DRUG COMPANY,DIVISION J M SMITH CORPORATION,1500 COMMERCE DRIVE,VALDOSTA,GA,31601,RS0379758,NULL,T41492,2017-11-15 01:50:00,dbo,2017-11-15 01:50:00,dbo
1224,1045,SMITH MEDICAL PARTNERS LLC,950 LIVELY BLVD,,WOOD DALE,IL,60191,RS0375344,NULL,T41094,2017-11-15 01:50:00,dbo,2017-11-15 01:50:00,dbo
1225,1061,SMITH'S FOOD & DRUG CTR'S INC,D/B/A PEYTON'S PHOENIX,5305 W BUCKEYE RD,PHOENIX,AZ,85043,RS0261379,NULL,T41421,2017-11-15 01:50:00,dbo,2017-11-15 01:50:00,dbo
1226,1095,SUPERVALU INC. DBA ADVANTAGE LOGISTICS M,533 NORTH MALLICK ROAD,,OGLESBY,IL,61348,RS0463428,NULL,T41356,2017-11-15 01:50:00,dbo,2017-11-15 01:50:00,dbo
1227,1043,"THE HARVARD DRUG GROUP, LLC",EXPERT MED/FIRST VETERINARY SUPPLY,5960 E. SHELBY DRIVE,MEMPHIS,TN,38141,RT0457780,NULL,T41630,2017-11-15 01:50:00,dbo,2017-11-15 01:50:00,dbo
1228,1043,THE HARVARD DRUG GROUP-MI,EXPERT-MED/LETCO MEDICAL,FIRST VETERINARY SUPPLY,LIVONIA,MI,48150,RG0131499,NULL,T41159,2017-11-15 01:50:00,dbo,2017-11-15 01:50:00,dbo
1229,1098,"TOP RX, LLC",2950 BROTHER BOULEVARD,,BARTLETT,TN,38133,RT0474217,NULL,T41631,2017-11-15 01:50:00,dbo,2017-11-15 01:50:00,dbo
1230,1001,TRIS PHARMA INC,KETAN B. MEHTA,2033 ROUTE 130,MONMOUTH JUNCTION,NJ,08852,RT0424159,NULL,T4101,2017-11-15 01:50:00,dbo,2017-11-15 01:50:00,dbo
1231,1000,TRIS PHARMA INC,"KETAN B. MEHTA, PRESIDENT",2033 ROUTE 130,MONMOUTH JUNCTION,NJ,08852,RT0305296,NULL,T4100,2017-11-15 01:50:00,dbo,2017-11-15 01:50:00,dbo
1232,1099,"VALLEY WHOLESALE DRUG CO., LLC",1401 WEST FREMONT STREET,,STOCKTON,CA,95203,RV0478431,NULL,T41320,2017-11-15 01:50:00,dbo,2017-11-15 01:50:00,dbo
1233,1100,"VALUE DRUG CO, INC",ONE GOLF VIEW DRIVE,,ALTOONA,PA,16601,PV0035673,NULL,T41161,2017-11-15 01:50:00,dbo,2017-11-15 01:50:00,dbo
1234,1100,VALUE DRUG COMPANY,195 THEATER DRIVE,,DUNCANSVILLE,PA,16635,RV0464646,NULL,T41636,2017-11-15 01:50:00,dbo,2017-11-15 01:50:00,dbo
1235,1066,VEDCO,5503 CORPORATE DRIVE,,SAINT JOSEPH,MO,64507,RV0240589,NULL,T41353,2017-11-15 01:50:00,dbo,2017-11-15 01:50:00,dbo
1236,1066,VICTOR INSTRUMENTS INC,VICTOR INSTURMENTS,50 BUNSEN,IRVINE,CA,92618,PV0215118,NULL,T41413,2017-11-15 01:50:00,dbo,2017-11-15 01:50:00,dbo
1237,1101,WAKEFERN FOOD CORPORATION,8301 INDUSTRIAL BOULEVARD,,BREINIGSVILLE,PA,18031,RW0356192,NULL,T41435,2017-11-15 01:50:00,dbo,2017-11-15 01:50:00,dbo
1238,1103,WALGREEN CO,15998 WALGREENS DRIVE,,JUPITER,FL,33478,RW0277752,NULL,T41162,2017-11-15 01:50:00,dbo,2017-11-15 01:50:00,dbo
1239,1103,WALGREEN CO,DBA WALGREENS,4400 STATE RD 19,WINDSOR,WI,53598,PW0211158,NULL,T41165,2017-11-15 01:50:00,dbo,2017-11-15 01:50:00,dbo
1240,1103,WALGREEN CO,2455 PREMIER ROW,,ORLANDO,FL,32809,PW0122262,NULL,T41166,2017-11-15 01:50:00,dbo,2017-11-15 01:50:00,dbo
1241,1103,WALGREEN CO,DBA: WALGREEN WAREHOUSE,2370 E MAIN STREET,WOODLAND,CA,95776,RW0204026,NULL,T41167,2017-11-15 01:50:00,dbo,2017-11-15 01:50:00,dbo
1242,1103,WALGREEN CO,DBA WALGREENS,5100 LAKE TERRACE NE,MOUNT VERNON,IL,62864,RW0152467,NULL,T41169,2017-11-15 01:50:00,dbo,2017-11-15 01:50:00,dbo
1243,1103,WALGREEN CO,710 OVILLA ROAD,,WAXAHACHIE,TX,75167,RW0281953,NULL,T41171,2017-11-15 01:50:00,dbo,2017-11-15 01:50:00,dbo
1244,1103,WALGREEN CO,28727 OREGON ROAD,ATTN: C II MANAGER,PERRYSBURG,OH,43551,RW0294493,NULL,T41172,2017-11-15 01:50:00,dbo,2017-11-15 01:50:00,dbo
1245,1103,WALGREEN CO,DBA: WALGREENS,17500 PERRIS BLVD,MORENO VALLEY,CA,92551,RW0308216,NULL,T41173,2017-11-15 01:50:00,dbo,2017-11-15 01:50:00,dbo
1246,1103,WALGREEN CO.,DBA: WALGREENS,101 ALLIANCE PARKWAY,WILLIAMSTON,SC,29697,RW0347496,NULL,T41418,2017-11-15 01:50:00,dbo,2017-11-15 01:50:00,dbo
1247,1103,WALGREEN EASTERN CO INC,DBA WALGREENS WAREHOUSE,125 N COMMERCE WAY,BETHLEHEM,PA,18017,RW0161872,NULL,T41168,2017-11-15 01:50:00,dbo,2017-11-15 01:50:00,dbo
1248,1103,"WALGREEN EASTERN CO., INC.",80 INTERNATIONAL DR.,,WINDSOR,CT,06095,RW0376170,NULL,T41488,2017-11-15 01:50:00,dbo,2017-11-15 01:50:00,dbo
1249,1104,"WALGREENS MAIL SERVICE, INC.",8337 S PARK CIRCLE,,ORLANDO,FL,32819,BW8910879,NULL,T41398,2017-11-15 01:50:00,dbo,2017-11-15 01:50:00,dbo
1250,1105,"WALGREENS MAIL SERVICE, INC.",8350 S RIVER PARKWAY,,TEMPE,AZ,85284,BW4197883,NULL,T41399,2017-11-15 01:50:00,dbo,2017-11-15 01:50:00,dbo
1251,1102,WAL-MART PHARMACY WAREHOUSE,4501 WAL-MART WAY,,TIFTON,GA,31794,RW0133479,NULL,T41426,2017-11-15 01:50:00,dbo,2017-11-15 01:50:00,dbo
1252,1102,WAL-MART PHARMACY WAREHOUSE,#28,801 COR-DA BOULEVARD,CRAWFORDSVILLE,IN,47933,RW0165731,NULL,T41427,2017-11-15 01:50:00,dbo,2017-11-15 01:50:00,dbo
1253,1102,WAL-MART PHARMACY WHSE #45,2250 NORTH 8TH STREET,SUITE 102-A,ROGERS,AR,72756,RW0282145,NULL,T41425,2017-11-15 01:50:00,dbo,2017-11-15 01:50:00,dbo
1254,1102,WAL-MART PHCY WAREHOUSE #46,#46,11121 ELLIOT PLACE,WILLIAMSPORT,MD,21795,RW0199908,NULL,T41428,2017-11-15 01:50:00,dbo,2017-11-15 01:50:00,dbo
1255,1102,WAL-MART WAREHOUSE #32,13231 11TH AVENUE,,HANFORD,CA,93230,RW0186278,NULL,T41424,2017-11-15 01:50:00,dbo,2017-11-15 01:50:00,dbo
1256,1106,WESLEY PHARMACAL CO,114 RAILROAD DRIVE,,IVYLAND,PA,18974,PW0109428,NULL,T41627,2017-11-15 01:50:00,dbo,2017-11-15 01:50:00,dbo
1257,1107,WHOLESALE RX,GENERIC PHARMACEUTICALS DISTRIBUTOR,"7740-A TRINITY ROAD, STE 113",CORDOVA,TN,38018,RW0424248,NULL,T41623,2017-11-15 01:50:00,dbo,2017-11-15 01:50:00,dbo
1258,1012,ABC - Olive,12577 Stateline Rd,,Olive Branch,MS,38654-3801,RA0504743,,,2017-11-27 12:19:00,mhoenig,2017-11-27 12:19:00,mhoenig
1259,1012,ABC - Shakopee,500 Innovation Blvd,,Shakopee,MN,55379,RA0501216,,,2017-12-07 14:42:00,mhoenig,2017-12-07 14:42:00,mhoenig
1260,1012,ABC - Buford,3930 Buford Hwy NE,,Buford,GA,30518,RA0515063,,,2017-12-15 14:29:00,mhoenig,2017-12-15 14:29:00,mhoenig
1261,1012,ABC - Des Moines,2141 S 211TH STREET,,DES MOINES,WA,98198,RA0513437,,,2017-12-15 14:36:00,mhoenig,2017-12-15 14:36:00,mhoenig
1262,1012,ABC - Whitestown,4860 Indinapolis Rd,,Whitestown,IN,46075,RA0509490,,,2018-02-07 13:17:00,mhoenig,2018-02-07 13:18:00,mhoenig
1263,1012,ABC - Newburgh,"108 ROUTE 17K SUITE 1 ",,Newburgh,NY,12550,RA0522056,,,2018-02-07 13:20:00,mhoenig,2018-02-07 13:20:00,mhoenig
1264,1023,Cardinal Health - Parmed Pharmaceuticals,4220 Hyde Park Blvd,,Niagara Falls,NY,14305,RC0501014,,,2018-02-07 13:22:00,mhoenig,2018-02-07 13:22:00,mhoenig
1265,1069,Mckesson - Mont,10 Hudson Crossing,,Montgomery,NY,12549,RM0513401,,,2018-03-12 13:06:00,mhoenig,2018-03-12 13:06:00,mhoenig
1266,1012,ABC - Phoenix New,7775 Buckeye Rd,,Phoenix,AZ,85043,RA0512411,,,2018-10-29 13:20:00,mhoenig,2018-10-29 13:21:00,mhoenig
1267,1094,Burlington,91 Catamount Dr,,Milton,VT,05468,PB0020139,,,2019-04-11 15:46:00,mhoenig,2019-04-11 15:46:00,mhoenig
1268,1094,Carey OH,520 Arrowhead Drive,,Carey,OH,43316,,,,2019-04-11 15:47:00,mhoenig,2019-04-11 15:47:00,mhoenig